{
    "links": {
        "self": "http://www.neowsapp.com/rest/v1/neo/3163749?api_key=iIulBulltgU6a56xZRHN4H3l9WmuAYTsLGpBGhQ2"
    },
    "id": "3163749",
    "neo_reference_id": "3163749",
    "name": "(2003 UW5)",
    "designation": "2003 UW5",
    "nasa_jpl_url": "http://ssd.jpl.nasa.gov/sbdb.cgi?sstr=3163749",
    "absolute_magnitude_h": 24.3,
    "estimated_diameter": {
        "kilometers": {
            "estimated_diameter_min": 0.0366906138,
            "estimated_diameter_max": 0.0820427065
        },
        "meters": {
            "estimated_diameter_min": 36.6906137531,
            "estimated_diameter_max": 82.0427064882
        },
        "miles": {
            "estimated_diameter_min": 0.0227984834,
            "estimated_diameter_max": 0.0509789586
        },
        "feet": {
            "estimated_diameter_min": 120.3760332259,
            "estimated_diameter_max": 269.1689931548
        }
    },
    "is_potentially_hazardous_asteroid": false,
    "close_approach_data": [
        {
            "close_approach_date": "2003-11-19",
            "close_approach_date_full": "2003-Nov-19 11:39",
            "epoch_date_close_approach": 1069241940000,
            "relative_velocity": {
                "kilometers_per_second": "6.8961746385",
                "kilometers_per_hour": "24826.2286987745",
                "miles_per_hour": "15426.0530489691"
            },
            "miss_distance": {
                "astronomical": "0.0822067249",
                "lunar": "31.9784159861",
                "kilometers": "12297950.944715963",
                "miles": "7641592.3716997694"
            },
            "orbiting_body": "Earth"
        }
    ],
    "orbital_data": {
        "orbit_id": "14",
        "orbit_determination_date": "2017-04-06 09:13:39",
        "first_observation_date": "2003-10-18",
        "last_observation_date": "2003-12-01",
        "data_arc_in_days": 44,
        "observations_used": 53,
        "orbit_uncertainty": "7",
        "minimum_orbit_intersection": ".0610674",
        "jupiter_tisserand_invariant": "3.231",
        "epoch_osculation": "2459000.5",
        "eccentricity": ".5782938766630514",
        "semi_major_axis": "2.469039846494915",
        "inclination": "1.864165458873379",
        "ascending_node_longitude": "16.69990246512126",
        "orbital_period": "1417.067621953453",
        "perihelion_distance": "1.041209222029825",
        "perihelion_argument": "52.55229180131575",
        "aphelion_distance": "3.896870470960005",
        "perihelion_time": "2458648.512267889188",
        "mean_anomaly": "89.42098570088886",
        "mean_motion": ".2540457451873282",
        "equinox": "J2000",
        "orbit_class": {
            "orbit_class_type": "AMO",
            "orbit_class_description": "Near-Earth asteroid orbits similar to that of 1221 Amor",
            "orbit_class_range": "1.017 AU < q (perihelion) < 1.3 AU"
        }
    },
    "is_sentry_object": false
}